id,nombre,codigo,direccion,X,Y,county
3,EMBIL,23130059,VENTO ANTES DE EMBIL,-82.3919029968172,23.0709498646729,Boyeros
12,ZONA X,23060010,7MA E/ 162 Y 162 A,-82.2759244701332,23.1562240460125,Habana del Este
18,INTERMITENTE DE ALAMAR,23060024,164 E/ 5TA G Y 7MA,-82.2722617281097,23.1574601335882,Habana del Este
21,MONUMENTAL UM,23070015,MONUMENTAL ANTES DE DESVIO PRIMER ANILLO,-82.2671567388873,23.1211625896114,Guanabacoa
36,SECTOR RPTO ELECTRICO,23140062,PRIMER ANILLO ANTES DE CAMINO FINCA 236,-82.334787226048,23.0513669192779,Arroyo Naranjo
37,EMBIL,23130062,VENTO E/ EMBIL Y 3RA,-82.3921610360292,23.07105089117,Boyeros
43,INTERMITENTE DE ALAMAR,23060009,164 E/ 5TA G Y 7MA,-82.2727301918689,23.1578864485687,Habana del Este
50,NUEVO CERRO,23100014,FERRER E/ MANILA Y CARMEN,-82.3894321750978,23.1105626182058,Cerro
59,SAN PEDRO,23150038,PRIMER ANILLO ANTES DE PUENTE CARR CENTRALDir Parada,-82.2871078254314,23.059688656021,Cotorro
67,LA PESA,23150019,101 ANTES DE 50,-82.2535348306787,23.0334986816783,Cotorro
93,AUTOPISTA MELENA,23140071,PRIMER ANILLO PDO AUTOPISTA MELENA,-82.3112637401581,23.0522255931091,Arroyo Naranjo
109,HOSP AMEJEIRAS P16 55,23030022,SAN LAZARO E/ MARQUES GONZALEZ Y VENUS,-82.3722256693257,23.1404973398901,Centro Habana
118,POLICLINICO ZONA V,23060023,160 ANTES DE 3RA D,-82.2851429551059,23.162502457162,Habana del Este
132,AUTOPISTA MELENA,23140060,PRIMER ANILLO ANTES DE AUTOPISTA MELENA,-82.3113881151835,23.0524675879669,Arroyo Naranjo
147,EL MIKITO,23070004,CORRALFALSO E/ SAN SEBASTIAN Y CARR SANTA MARIA,-82.2973332380048,23.1196477640585,Guanabacoa
148,POLICLINICO ZONA V,23060034,160 PDO 3RA D,-82.2850333380536,23.1624049364855,Habana del Este
165,PARQUE LENIN,23140067,PRIMER ANILLO PDO CARR PARQUE LENIN,-82.3569435143979,23.039341163427,Arroyo Naranjo
193,XI FESTIVAL,23060028,168 E/ 5TA Y 3RA H,-82.2741671380473,23.1660461371835,Habana del Este
202,AUTOPISTA NACIONAL,23150041,PRIMER ANILLO Y CAFETERIA 8 VIAS (ANTES PUENTE AUTOPISTA),-82.2738883037189,23.0714982896764,Cotorro
234,AUTOPISTA NACIONAL,23150036,PRIMER ANILLO Y CAMINO AL POLVORIN (FTE CAFETERIA 8 VIAS),-82.2741312810295,23.0716263103529,Cotorro
251,100 Y 51,23110017,100 E/ 55 Y 57,-82.4208973481006,23.0797607404634,Marianao
256,ESC QUIMICA,23010143,17 ANTES DE 174,-82.4623334051373,23.0873565326791,Playa
257,POLICLINICO PLAYA,23010044,31 E/ 64 Y 66,-82.4208364066667,23.0994404221079,Playa
258,ESTACION GRAL PERAZA,23130038,BOYEROS E/ 309 Y LINEA FFCC,-82.3887439431426,23.0006940171165,Boyeros
292,POLICLINICO JORGE RUIS RAMIREZ,23010045,31 E/ 54 Y 56,-82.4194454922636,23.1049101462591,Playa
324,POLICLINICO JORGE RUIZ RAMIREZ,23010050,31 E/ 56 Y 54,-82.4196127336567,23.1048785680457,Playa
333,ZONA XVII,23060003,5TA ANTES DE 180,-82.2634586785116,23.1689645491535,Habana del Este
357,100 Y 51,23110020,100 E/ 57 Y 51,-82.4212064496201,23.0799418399926,Marianao
371,POLICLINICO NENINGER,23060031,5TA E/ 184 Y ACCESO POLICLINICO,-82.2589294569559,23.1691581555566,Habana del Este
390,ESC QUIMICA,23010144,17 E/ 174 Y 180,-82.4626284820763,23.0867114421481,Playa
391,LIDO,23110019,41 E/ 86 Y 88,-82.4216648420459,23.0874721165693,Marianao
402,FONTANAR,23130042,BOYEROS ANTES DE 243,-82.3990769465519,23.0249477951982,Boyeros
407,MICRO X,23060001,5TA ANTES DE 190,-82.2527225117094,23.1698522159833,Habana del Este
440,LIGA CEGUERA,23010009,41 E/ 76 Y 74,-82.4214796002984,23.0928137753314,Playa
460,ANFITEATRO GUANABACOA,23070006,CORRALFALSO E/ OBISPO Y SAN ANDRES,-82.3108673189275,23.1232048711725,Guanabacoa
493,LA MUÑECA,23010111,190 PDO ROTONDA LA MUÑECA,-82.4574456288081,23.0767104464824,Playa
498,CENTRO COMERCIAL RPTO CAMILO CIENFUEGOS,23060059,ROTONDA CENTRO COMERCIAL RPTO CAMILO CIENFUEGOS,-82.3283168027881,23.1590864444929,Habana del Este
500,ALTAHABANA,23130058,VENTO ANTES DE 10,-82.3981287991118,23.064298346254,Boyeros
510,FUNERARIA PLAYA,23010010,70 E/ 29B Y 29A,-82.4239983898132,23.0980864743259,Playa
513,ESTACION GRAL PERAZA,23130057,BOYEROS ANTES DE CDA BEJUCAL,-82.3883794851873,23.0001993243257,Boyeros
532,LA MUÑECA,23010112,190 ANTES DE ROTONDA LA MUÑECA,-82.457652803171,23.0767268932085,Playa
552,PUENTE SANTA FE,23070014,MONUMENTAL ANTES DE PUENTE SANTA FE,-82.2712201829998,23.1288946202861,Guanabacoa
568,FUNERARIA PLAYA,23010026,70 E/ 29B Y 29C,-82.4232799071356,23.0972059517705,Playa
572,PABEXPO,23010055,190 E/ 17 Y 17 A,-82.4634985246249,23.0827028881819,Playa
599,RIO VERDE,23130054,BOYEROS ANTES DE 136,-82.3988163670109,23.0194358304712,Boyeros
624,PABEXPO,23010056,17 E/ 182 Y 184,-82.4635404596077,23.0845387854559,Playa
651,19 Y 70,23010012,70 E/ 15 Y 13,-82.4311267240534,23.1047653718114,Playa
654,PLAYA,23010019,5TA E/ 118 Y 116,-82.4525913939185,23.0942655345998,Playa
686,PLAYA P1,23010043,5TA E/ 118 Y 116,-82.4523193399928,23.0946692313504,Playa
711,CORREO PORVENIR,23090017,PORVENIR E/ FONTS Y E,-82.3513337477942,23.1002945683844,Diez de Octubre
718,19 Y 70,23010024,70 E/ 15 Y 13,-82.4304811641681,23.1039306578574,Playa
775,PAPELERA PUENTES GRANDES,23010040,CDA PUENTES GRANDES E/ BULLER Y CAÑONGO,-82.4072020117704,23.0998358999728,Revolution Square
789,CORREO PORVENIR,23090012,PORVENIR E/ D Y E,-82.3519164549978,23.0993065968079,Diez de Octubre
844,MIRAMAR,23010028,31 E/ 6 Y 8,-82.4142579092395,23.1250996803794,Playa
878,RELOJ CLUB,23130046,BOYEROS E/ 8VA Y VENTO,-82.4020443103905,23.0598049018168,Boyeros
888,PUNTO EXPEDICION P11 MICRO X,23063997,192 E/ 1RA B Y 1RA A,-82.2522828828224,23.1730903093206,Habana del Este
901,UNIDAD PNR LA LISA,23120020,51 E/ 246 Y 248,-82.4613458560466,23.0509653732159,La Lisa
908,PABEXPO,23010074,190 E/ 17 Y 15,-82.4647757943539,23.0832339554825,Playa
917,BASE TAXIS,23060029,5TA E/ 174 Y 176,-82.2683162786049,23.1686753703537,Habana del Este
944,MERCADO DE LOS RUSOS,23060027,3RA E/ 164 Y 162 D,-82.2794350367242,23.168626084813,Habana del Este
971,ANFITEATRO ALAMAR,23060007,162 PDO 3RA,-82.2821717624046,23.1676357622251,Habana del Este
994,PARQUE DE DIVERSIONES,23060025,164 E/ 3J Y 3H,-82.2776941342359,23.162811616222,Habana del Este
1018,PARQUE DE DIVERSIONES,23060008,164 E/ 3J Y 3H,-82.2777047361937,23.1628401145111,Habana del Este
1037,PUENTE ALAMAR,23060012,DOBLE VIA ALAMAR ANTES DE PUENTE 158,-82.2860232337569,23.1543465071597,Habana del Este
1045,MONTE BARRETO,23010013,70 E/ 7MA B Y 7MA A,-82.4340117094824,23.1074560272723,Playa
1094,AEROPUERTO TERMINAL 1,23130006,BOYEROS E/ 345 Y VAN TROI (PREUNIVERSITARIO),-82.3865729937774,22.9922125751739,Boyeros
1096,ARROYO ARENAS,23120006,51 ANTES 264,-82.4644726986143,23.0465153661675,La Lisa
1107,AEROPUERTO TERMINAL 1,23130023,BOYEROS E/ 329 Y 343 (PREUNIVERSITARIO),-82.3867457310887,22.992158083233,Boyeros
1167,ESTACION FFCC LUYANO,23090022,LUYANO PDO LINEA FFCC,-82.3485126702059,23.1058662284571,Diez de Octubre
1171,TERMINAL FFCC,23040008,EGIDO E/ AVE PUERTO Y SAN ISIDRO,-82.3531665869073,23.1290407499702,La Habana Vieja
1172,MONTE BARRETO,23010023,70 E/ 7MA Y 7MA A,-82.4347537064217,23.1079151148471,Playa
1183,LINEA FFCC,23110016,100 E/ 73 Y 96 (C. NOVO),-82.4120253482504,23.0737227206636,Marianao
1189,ESTACION GRAL PERAZA,23130021,CDA BEJUCAL PDO LINEA FFCC,-82.3882069140223,23.0014218872491,Boyeros
1195,CAPRI - GUINERA,23140020,CDA BEJUCAL E/ ALAMO Y MENDOZA,-82.3633531419772,23.0452279962388,Arroyo Naranjo
1202,BUENAVISTA,23010025,70 E/ 23 Y 25,-82.4271016032496,23.1007904779812,Playa
1204,HOSP EMERGENCIAS,23030011,INFANTA E/ MALOJA Y ESTRELLA,-82.3766138152331,23.1298400764787,Centro Habana
1205,ESTACION FFCC LUYANO,23090019,LUYANO E/ AGRAMONTE Y ARMENTEROS,-82.3483832270321,23.1059193523122,Diez de Octubre
1218,MERCADO DE 70,23010014,70 E/ 5TA Y 3RA,-82.4377911338789,23.1109550447517,Playa
1219,ESTACION GRAL PERAZA,23130008,CDA BEJUCAL PDO LINEA FFCC,-82.3882154241232,23.0023374018658,Boyeros
1221,TERMINAL FFCC,23040011,EGIDO E/ ARSENAL Y DESAMPARADOS ,-82.3535025763714,23.1292607339126,La Habana Vieja
1224,ALTAHABANA,23130063,VENTO ANTES DE 10,-82.3976273856471,23.0653141406604,Boyeros
1226,PLAYA,23010058,120 E/ 5TA B Y 5TA F,-82.4523235937013,23.0923383976371,Playa
1228,MERCADO DE 70,23010022,3RA ANTES DE 70,-82.438955429678,23.1110432230957,Playa
1230,CAPRI - GUINERA,23140034,CDA BEJUCAL E/ MENDOZA Y AVE GUINERA,-82.3622755493537,23.0463351076706,Arroyo Naranjo
1233,VENTO,23090031,LACRET E/ PASAJE ESTE Y MAYIA RODRIGUEZ,-82.3758359712772,23.1020127920322,Diez de Octubre
1238,MATERNIDAD DE LINEA,23020033,LINEA E/ H E I,-82.3904189167793,23.1419310901249,Revolution Square
1239,POLICLINICO RPTO ELECTRICO,23140056,CAMILO CIENFUEGOS E/ 4TA Y 5TA,-82.3336500754429,23.0452355874434,Arroyo Naranjo
1247,TEATRO KARL MARX,23010029,3RA E/ 14 Y 16,-82.4201752552355,23.1256911145336,Playa
1248,LA ROSITA,23080004,CDA GUINES E/ 104 Y 100,-82.3095772582239,23.0728259458396,San Miguel del Padrón
1251,VIRGEN DEL CAMINO,23080012,CDA GUINES E/ GABRIEL Y CDA SMP,-82.3402468999934,23.1019657661799,San Miguel del Padrón
1257,ESTADIO LATINOAMERICANO,23100026,CDA CERRO E/ SARAVIA Y CONSEJERO ARANGO,-82.3740616856085,23.1157287869145,Cerro
1258,MERCADO DE 70,23010032,3RA ANTES DE 70,-82.4380757115163,23.111890979939,Playa
1260,SANTOS SUAREZ,23090029,LACRET E/ JUAN BRUNO ZAYAS Y CORTINA,-82.3699450970994,23.100182379131,Diez de Octubre
1262,RPTO ALKAZAR,23140021,CDA BEJUCAL E/ 2DA Y 1RA,-82.3639550751867,23.0508317597133,Arroyo Naranjo
1263,CIRCULO INFANTIL,23090037,DOLORES E/ 21 Y 22,-82.3424721581809,23.0860359991002,Diez de Octubre
1264,PARQUE DOLORES,23090027,DOLORES E/ LAWTON Y SAN ANASTACIO,-82.3582559019782,23.0951580856578,Diez de Octubre
1266,SANTOS SUAREZ,23090032,LACRET E/ DSTRAMPES Y FIGUEROA,-82.3715044202246,23.1005704126115,Diez de Octubre
1272,TERMINAL OMNIBUS NACIONALES,23020015,BOYEROS E/ 19 MAYO Y BRUZON,-82.3834768627049,23.1267517790467,Revolution Square
1273,HOSP PEDIATRICO CERRO,23100021,CDA CERRO E/ ZARAGOZA Y SANTA TERESA,-82.385502665809,23.1080255153349,Cerro
1276,CENTRO COMERCIAL RPTO CAMILO CIENFUEGOS,23060258,ROTONDA CENTRO COMERCIAL RPTO CAMILO CIENFUEGOS,-82.3277291331152,23.1586053846218,Habana del Este
1280,CASA CENTRAL,23010015,3RA E/ 90 Y 92,-82.4468292333785,23.1037325631514,Playa
1281,RPTO DINORAH,23130009,CDA BEJUCAL E/ 162 Y 160A,-82.386142886722,23.0065426041986,Boyeros
1282,LAWTON,23090025,DOLORES E/ 16 Y 15,-82.347601755727,23.0890875957411,Diez de Octubre
1283,LINEA Y 8,23020028,LINEA E/ 8 Y 6,-82.4029025778806,23.1347222995486,Revolution Square
1290,SAN PEDRO,23150039,PRIMER ANILLO PDO PUENTE CARR CENTRAL,-82.2874930964628,23.0591790249948,Cotorro
1292,ENTRONQUE CUJAE,23130072,CARR CUJAE PDO LINEA FFCC,-82.4066778626966,23.0444255121643,Boyeros
1293,ENTRONQUE CUJAE,23130073,CARR CUJAE ANTES DE ACCESO TRANSTUR RENTA,-82.4080558626966,23.0441915121643,Boyeros
1294,PUENTE CALABAZAR,23140066,100 Y CDA BEJUCAL,-82.3657253904709,23.0422402128996,Arroyo Naranjo
1295,PUENTE CALABAZAR,23140065,100 Y CDA BEJUCAL,-82.3656133904708,23.0423992128996,Arroyo Naranjo
1296,100 Y BOYEROS,23130047,BOYEROS BAJO EL PUENTE DE 100,-82.3984987018933,23.0708605126166,Boyeros
1298,100 Y BOYEROS,23130048,BOYEROS BAJO EL PUENTE DE 100,-82.3985145364542,23.0713859124041,Boyeros
1318,MIRAFLORES VIEJO,23130060,VENTO E/ A Y B,-82.3852903647415,23.0779293467615,Boyeros
1376,RPTO ALKAZAR,23140033,CDA BEJUCAL E/ 5TA Y 1RA,-82.3642055659187,23.051390620404,Arroyo Naranjo
1381,CASA CENTRAL,23010021,3RA E/ 94 Y 92,-82.4475947417928,23.1030186743129,Playa
1384,RPTO DINORAH,23130020,CDA BEJUCAL ANTES DE 160,-82.3846059926489,23.0075243949949,Boyeros
1386,RPTO MARTI,23100008,BOYEROS PDO PALMAR,-82.3945972212757,23.0858775560768,Cerro
1387,MIRAFLORES VIEJO,23130061,VENTO PDO LINEA FFCC,-82.3855372907323,23.0783142151178,Cerro
1389,CEMENTERIO DE LOS JUDIOS,23070074,CORRALFALSO ANTES DE AVE DE LOS MARTIRES,-82.2827198713038,23.1214120940159,Guanabacoa
1390,RPTO ELECTRICO,23140055,CARR MANAGUA E/ JOSE MARTI Y CAMILO CIENFUEGOS,-82.3270186638918,23.0487104496647,Arroyo Naranjo
1392,CARPA TROMPOLOCO,23010020,112 E/ 5TA Y 3RA A,-82.4509928542903,23.0988811348924,Playa
1396,HOSP JULIO TRIGO - ABALLI,23140032,CDA BEJUCAL Y HOSP JULIO TRIGO - ABALLI,-82.365217931616,23.053962320147,Arroyo Naranjo
1397,LUYANO,23090013,CONCHA E/ PEDRO PERNAS E INFAZON,-82.3516825735222,23.1069760399262,Diez de Octubre
1402,CUATRO RUEDAS,23140005,DOLORES ANTES DE LINEA FFCC,-82.3302543154252,23.0819041405758,Diez de Octubre
1408,CIUDAD DEPORTIVA,23100007,BOYEROS PDO ROTONDA,-82.3946450987831,23.10155093772,Cerro
1410,LA WARD,23100054,STA CATALINA ANTES DE PRIMELLES,-82.3896957215894,23.0983444882402,Cerro
1418,CASINO DEPORTIVO,23100019,VENTO E/ ENTRADA Y 2DA,-82.3817730113802,23.0911980815572,Cerro
1420,CARPA TROMPOLOCO,23010016,112 E/ 3RA A Y 5TA,-82.4513590503849,23.0987540435145,Playa
1427,LA CABAÑA,23060017,MONUMENTAL Y SALIDA TUNEL BAHIA,-82.3511025612644,23.1530910653618,Habana del Este
1429,FABRICA ALUMINIO,23050004,VIA BLANCA ANTES DE CALINDERO (CALLEJON DEL SAPO),-82.3247009138596,23.1180209741348,Guanabacoa
1435,ROTONDA COJIMAR,23060037,VIA BLANCA ANTES DE 23 (94A - CIRCULAR PLAZA ESTE),-82.3012225045823,23.1431056506285,Habana del Este
1443,TERMINAL DE OMNIBUS ALAMAR,23063998,168 E/ 5TAE Y 5TAG,-82.2699466210476,23.1631140331307,Habana del Este
1444,RPTO ELECTRICO,23140042,CARR MANAGUA E/ B Y A,-82.3268840323246,23.0475683830702,Arroyo Naranjo
1449,LAWTON,23090036,DOLORES E/ 15 Y 16,-82.3474560793416,23.088885728296,Diez de Octubre
1454,ANFITEATRO ALAMAR,23060026,3RA PDO 162,-82.2819049443346,23.168441040869,Habana del Este
1457,PLAYA,23010017,5TA E/ 118 Y 120,-82.4532951127806,23.0940276770439,Playa
1460,LA CABAÑA,23060016,MONUMENTAL Y ENTRADA TUNEL BAHIA,-82.3506063677699,23.1534978230126,Habana del Este
1477,PEDIATRICO CENTRO HABANA,23030010,INFANTA E/ SANTO TOMAS Y BENJUMEDA,-82.3752648125595,23.1264671331431,Cerro
1489,VIRGEN DEL CAMINO,23080013,CDA GUINES ANTES DE MATOS,-82.3404666744595,23.1023267589126,San Miguel del Padrón
1492,EL CALVARIO,23140054,CDA MANAGUA E/ CALVARIO Y ANGELES,-82.3305002633529,23.0566962095567,Arroyo Naranjo
1515,LAS MARIAS,23080003,CDA GUINES E/ CALLEJON DARIO Y CALLEJON LAS MARIAS,-82.3031871984861,23.0691975452256,San Miguel del Padrón
1516,CAROLINA,23080015,CDA GUINES ANTES DE 52,-82.3306811552384,23.0908817905386,San Miguel del Padrón
1518,ESTACION LA ROSITA,23083998,CDA GUINES Y 100,-82.310052262746,23.0734865364152,San Miguel del Padrón
1519,PARQUE LA NORMAL,23030016,INFANTA E/ SANTA MARTA Y MANGLAR REGRESO,-82.3744605972922,23.1240503810053,Cerro
1529,XI FESTIVAL P3,23060275,168 E/ 5TA E Y ENTRADA TERMINAL,-82.2713103041175,23.1629816408631,Habana del Este
1530,XI FESTIVAL,23060005,168 E/ 5TA Y 3RA H,-82.2740612390899,23.1660455524103,Habana del Este
1531,VIRGEN DEL CAMINO,23080035,CDA VIEJA GCOA E/ B Y CDA GUINES,-82.3405089355605,23.1042678634427,San Miguel del Padrón
1532,HOSP CLINICO QUIRURGICO,23020051,26 ANTES DE ROTONDA C DEPORTIVA,-82.3951922450259,23.1044929622791,Cerro
1534,YUMURI,23030020,REINA E/ LEALTAD Y ESCOBAR,-82.3674575847386,23.1321975788979,Centro Habana
1535,YUMURI,23030018,SALVADOR ALLENDE E/ MARQUES GONZALEZ Y SAN CARLOS,-82.370698945,23.13177466,Centro Habana
1537,RPTO PANAMERICAN,23130039,BOYEROS ANTES DE 289,-82.3935574600606,23.0059566397929,Boyeros
1538,MAZORRA,23130055,BOYEROS E/ 273 Y 277,-82.3961621289436,23.0103231635471,Boyeros
1556,POLICLINICO PUENTES GRANDES,23020054,PUENTES GRANDES FTE CERVANTES (LINDERO),-82.3982672288908,23.1047000443702,Revolution Square
1557,HANOI,23060035,160 E/ 5TA G Y 160 C,-82.2815760841164,23.1576034228167,Habana del Este
1561,LA CUMBRE,23080007,CDA GUINES E/ 94 Y 90,-82.3216661323811,23.080077237884,San Miguel del Padrón
1576,HOSP  EMERGENCIAS,23030014,INFANTA E/ POCITO Y SALVADOR ALLENDE,-82.3773367306398,23.131607919891,Revolution Square
1578,CINE ASTRAL,23030013,INFANTA E/ SAN MIGUEL Y SAN RAFAEL,-82.3783893133896,23.1359699268716,Centro Habana
1582,NUEVO CERRO,23100015,FERRER E/ MANILA Y CDA CERRO,-82.389677591164,23.1093637782176,Cerro
1587,LA HATA,23070003,CORRALFALSO ANTES DE CENTRAL,-82.2915219103976,23.1206314321509,Guanabacoa
1588,LA HATA,23070011,CORRALFALSO E/ BARRETO Y 2DA,-82.2918927295714,23.1205450854345,Guanabacoa
1600,MERCADO DE LOS RUSOS,23060006,3RA E/ 164 A Y 164 B,-82.2781768520341,23.1684082781091,Habana del Este
1602,PUENTE SANTA FE,23070001,CARR CAMPO FLORIDO PDO CALLEJON DE BERROA,-82.269560815,23.12851732,Guanabacoa
1608,LOMA DE LOS ZAPOTES,23080011,CDA GUINES E/ BELTRAN Y OTERO,-82.3346316218245,23.0971443018366,San Miguel del Padrón
1610,CINE ASTRAL,23030012,INFANTA E/ SAN RAFAEL Y SAN MIGUEL,-82.3782838034264,23.1359741120441,Centro Habana
1612,HOSP EMERGENCIAS,23030017,SALVADOR ALLENDE E/ REQUENA E INFANTA,-82.3777210962551,23.130835004469,Revolution Square
1613,PLAYA FINAL P1,23010033,5TA E/  118 Y 120,-82.4532827075816,23.0935460943894,Playa
1614,CAROLINA,23080010,CDA GUINES E/ 64 Y 62,-82.3300041533944,23.0897693731353,San Miguel del Padrón
1618,LA CUMBRE,23080018,CDA GUINES E/ 9NA Y 13,-82.3216718638178,23.080065221905,San Miguel del Padrón
1631,CUPET SANTA CATALINA,23100011,STA CATALINA E/ SUZARTE Y PALATINO,-82.3838893688809,23.0972466684122,Cerro
1633,TERMINAL HAIPHONG,23040018,ANILLO DEL PUERTO Y ACCESO HAIPHONG,-82.3510384811124,23.1183797591023,La Habana Vieja
1654,DOLORES,23080009,CDA GUINES E/ 1RA Y DOLORES,-82.3262288545332,23.0828022492293,San Miguel del Padrón
1669,PEDIATRICO CENTRO HABANA,23030015,INFANTA E/ PENALVER Y DESAGUE,-82.3759442095524,23.1279665100756,Centro Habana
1672,MAZORRA,23130040,BOYEROS FTE ENTRADA MAZORRA,-82.3968973150953,23.0117494708998,Boyeros
1677,PLAYA CAB,23010080,120 E/ 7MA Y 5TA F,-82.4512513835048,23.0920917052955,Playa
1680,MUSEO REVOLUCION,23040043,ZULUETA E/ GENIOS Y REFUGIO,-82.3568972132901,23.1427121318723,La Habana Vieja
1711,NEPTUNO,23030003,BELASCOAIN E/ SAN MARTIN Y SAN RAFAEL,-82.3700627600553,23.1357584252949,Centro Habana
1712,19 Y 44,23010063,19 E/ 46 Y 48,-82.4241425726288,23.1100970807408,Playa
1716,NAUTICO,23010072,5TA E/ 160 Y RIO,-82.4589732369741,23.0909372840118,Playa
1717,LINEA FFCC,23110021,100 E/ 96 (C. NOVO) Y 85,-82.4120152817536,23.0735287359949,Marianao
1720,HOSP JULIO TRIGO - ABALLI,23140022,CDA BEJUCAL Y HOSP JULIO TRIGO - ABALLI,-82.3656542190979,23.0549942785102,Arroyo Naranjo
1722,LUYANO,23090016,CONCHA E/ INFAZON Y PEDRO PERNAS,-82.351736993478,23.10704292495,Diez de Octubre
1724,PALACIO MATRIMONIOS MAYIA,23090047,MAYIA RODRIGUEZ  E/ PATROCINIO Y CARMEN,-82.3778737656531,23.0925530685254,Diez de Octubre
1727,MATERNIDAD DE LINEA,23020020,G E/ 9 Y LINEA,-82.393045848195,23.1416104777086,Revolution Square
1735,EL CALVARIO,23140043,CDA MANAGUA E/ ANIMAS Y ANGELES,-82.3297314990905,23.056474010302,Arroyo Naranjo
1737,CUPET DOLORES,23090023,DOLORES E/ 25 Y 24,-82.3389364657943,23.0841274403606,Diez de Octubre
1738,MATERNIDAD DE LINEA,23020017,G E/ 13 Y LINEA,-82.3919629915526,23.1410478337025,Revolution Square
1742,LA FORTUNA,23130075,COSTA COSTA PDO CDA ARDAY,-82.3753192834172,23.0449021224751,Boyeros
1743,NAUTICO,23010057,5TA E/ 17 A Y 9NA,-82.4588242185383,23.090727649171,Playa
1744,QUINTA CANARIA,23140023,CDA BEJUCAL E/ CALIXTO GARCIA Y PORVENIR,-82.365085478636,23.0606545483551,Arroyo Naranjo
1745,BERENGUER,23130011,CDA BEJUCAL E/ 140 Y 138,-82.3784703559799,23.0107458029955,Boyeros
1746,BUENAVISTA,23010011,70 E/ 27 Y 25,-82.4264053247096,23.1003335706735,Playa
1748,PASO SUPERIOR,23090015,CONCHA E/ MANUEL PRUNA Y ENNA,-82.3546876706502,23.1121169782987,Diez de Octubre
1749,RIO VERDE,23130041,BOYEROS ANTES DE 136,-82.3988860985434,23.0197718132051,Boyeros
1750,CASTILLO AVEROFF,23140052,CDA MANAGUA ANTES DE PILAR,-82.337429359073,23.0629423118679,Arroyo Naranjo
1751,POLICLINICO LAWTON,23090035,DOLORES E/ 10 Y 11,-82.3522784231282,23.0916076593475,Diez de Octubre
1753,TULIPAN,23100029,AYESTARAN E/ PIÑERAS Y SAN PEDRO,-82.3846986195585,23.1165994619932,Revolution Square
1755,PALATINO,23100001,VIA BLANCA E/ SUZARTE Y CHAPLE,-82.3827013715496,23.1027621094913,Cerro
1756,CIUDAD DEPORTIVA,23100002,VIA BLANCA E/ PIZARRO Y ROTONDA,-82.3925073927905,23.1027508968328,Cerro
1758,PORVENIR Y DOLORES,23090034,DOLORES E/ LAWTON Y ARMAS,-82.3569742053375,23.0943070329313,Diez de Octubre
1769,BERENGUER,23130018,CDA BEJUCAL E/ 132 Y 134,-82.3766732030805,23.0130563628633,Boyeros
1773,QUINTA CANARIA,23140031,CDA BEJUCAL ANTES DE CAMILO SIERRA,-82.3639866155715,23.0623167625117,Arroyo Naranjo
1776,TULIPAN,23100033,AYESTARAN E/ 1RA Y 2DA,-82.385177802593,23.1162018659139,Revolution Square
1779,PASO SUPERIOR,23090014,CONCHA E/ ENNA Y VELAZQUEZ,-82.3546866997939,23.1121456069828,Diez de Octubre
1780,13 DE MARZO,23140044,CDA MANAGUA E/ CENTRAL Y LOS MANGOS,-82.3331458743161,23.058901469084,Arroyo Naranjo
1787,PARQUE EL CURITA P12,23030019,AGUILA E/ DRAGONES Y REINA,-82.3618475055298,23.1331621740197,Centro Habana
1788,PARQUE LA NORMAL,23030009,ARROYO E/ FRANCO Y SUBIRANA IDA,-82.371738437158,23.1237913498873,Centro Habana
1790,CUATRO RUEDAS,23080025,DOLORES ANTES DE CARR EL CUERVO,-82.3291176917994,23.0821555643325,San Miguel del Padrón
1794,NEPTUNO,23030006,BELASCOAIN E/ SAN MIGUEL Y SAN RAFAEL,-82.3702546171759,23.1364775144825,Centro Habana
1806,VENTO Y CAMAGUEY,23100009,VENTO ANTES DE CAMAGUEY,-82.3809616426982,23.0830613441075,Cerro
1810,HOSPITALES DEL VEDADO FINAL P11,23020044,G Y ROTONDA 29,-82.385478466152,23.1338368864158,Revolution Square
1812,HOSPITALES DEL VEDADO P11,23020038,G E/ 27 Y 29,-82.3859943487129,23.1342975190228,Revolution Square
1813,PUNTO EXPEDICION P15 SANTA FE,23073998,PASAJE A E/ CARR CAMPO FLORIDO Y 1RA,-82.2665061480434,23.1296165499526,Guanabacoa
1819,PERIODICO GRANMA,23100030,AYESTARAN E/ PEDRO PEREZ Y GRAL SUAREZ,-82.3827490808588,23.120176337345,Cerro
1821,POLICLINICO DE REGLA,23050012,ROTARIA E/ ENLACE Y 1RA,-82.3234984941794,23.1233656771493,Regla
1822,OBRAS MARITIMAS,23050016,ANILLO DEL PUERTO ANTES DE ACCESO OBRAS MARITIMAS,-82.3328842916083,23.1162145925408,Regla
1824,PARQUE SANTIAGO,23130002,188 E/ 409 Y 411,-82.3872787894179,22.9687560960739,Boyeros
1825,RPTO MARIA DEL CARMEN,23130043,BOYEROS ANTES DE 201,-82.4040748101955,23.0368227827469,Boyeros
1835,HOSPITALES DEL VEDADO P15 A95,23020052,G E/ 25 Y 23,-82.387266136181,23.1357272536307,Revolution Square
1842,PUENTE ALAMAR,23060021,DOBLE VIA ALAMAR PDO PUENTE 158,-82.2860089974549,23.154073521191,Habana del Este
1844,PORVENIR Y DOLORES,23090011,PORVENIR E/ SAN FRANCISCO Y CONCEPCION,-82.3565838078837,23.0923228320789,Diez de Octubre
1845,ZOOLOGICO,23020050,26 ANTES DE AVE ZOOLOGICO,-82.3995318978357,23.1107746662915,Revolution Square
1846,HOSP CALIXTO GARCIA,23020039,UNIVERSIDAD ANTES DE G,-82.3837260206627,23.1325829255859,Revolution Square
1847,ANFITEATRO GUANABACOA,23070008,CORRALFALSO E/ SAN ANDRES Y SAN JUAN BOSCO,-82.3099128013397,23.1230620260134,Guanabacoa
1850,POLICLINICO DE REGLA,23050027,ROTARIA E/ ENLACE Y 1RA,-82.32343859,23.123267155,Regla
1852,OBRAS MARITIMAS,23050023,ANILLO DEL PUERTO ANTES DE ACCESO OBRAS MARITIMAS,-82.3321880402231,23.1154283079061,Regla
1857,ENTRONQUE CUJAE,23130044,BOYEROS ANTES DE COSTA COSTA,-82.4054228073626,23.044230028287,Boyeros
1859,OMNIBUS NACIONALES,23020037,19 MAYO E/ POZOS DULCES Y BOYEROS,-82.3827942739971,23.1260330643724,Revolution Square
1861,VENTO,23090030,LACRET E/ PASAJE OESTE Y VENTO,-82.377259706187,23.1025825754106,Diez de Octubre
1867,CASTILLO AVEROFF,23140045,CDA MANAGUA ANTES DE CARR EL CUERVO,-82.3377852334118,23.063442621585,Arroyo Naranjo
1874,CAFE COLON,23090009,CDA DIEZ OCTUBRE E/ JOSEFINA Y URSULA,-82.3653390920861,23.0841478959196,Diez de Octubre
1876,PORVENIR Y DOLORES,23090018,PORVENIR E/ CONCEPCION Y SAN FRANCISCO,-82.3566006872511,23.0923287911153,Diez de Octubre
1877,NAZARENO,23130010,CDA BEJUCAL ANTES DE 152,-82.3832274765419,23.0079961870998,Boyeros
1890,MIRAMAR,23010037,31 E/ 10 Y 8,-82.4145020465975,23.124628901051,Playa
1893,NAZARENO,23130019,CDA BEJUCAL ANTES DE 152,-82.3820129821709,23.0085899522115,Boyeros
1899,LA COPA,23010031,3RA E/ 40A Y 42,-82.4312179232694,23.1174531473151,Playa
1900,CAPDEVILA,23130045,BOYEROS ANTES DE AVE VARONA,-82.4038920652689,23.0518809481402,Boyeros
1901,PARQUE ACOSTA,23090046,ACOSTA E/ FIGUEROA Y DSTRAMPES,-82.3748298245614,23.0891473684211,Diez de Octubre
1902,LA LECHERA,23040017,CONCHA E/ CALLEJON LA CONCHA Y CRISTINA,-82.3649754882391,23.1160116868924,La Habana Vieja
1905,VELARDE,23100013,PRIMELLES E/ WASHINGTON VELARDE,-82.388766206181,23.1041137818159,Cerro
1908,19 DE MAYO,23100031,AYESTARAN E/ DESAGUE Y 19 MAYO,-82.3800438719854,23.1256351971636,Revolution Square
1914,TEATRO KARL MARX,23010036,3RA E/ 16 Y 14,-82.4198079035661,23.125933553347,Playa
1915,LA COPA,23010034,3RA E/ 44A Y 44,-82.4325814630905,23.116594878437,Playa
1918,HOSP PEDIATRICO CERRO,23100028,CDA CERRO E/ SANTA TERESA Y MONASTERIO,-82.3863875895141,23.1083938591963,Cerro
1923,LA LECHERA,23040020,CONCHA E/ CRISTINA Y CALLEJON LA CONCHA,-82.3649960199531,23.1161025366211,La Habana Vieja
1929,CINE ACAPULCO,23020036,26 E/ 41 (TULIPAN) Y CONILL,-82.3993129185282,23.1153957923611,Revolution Square
1931,SEMAFORO GUANABACOA,23070005,CORRALFALSO E/ 6TA Y VIA BLANCA,-82.3190646176639,23.123611290491,Guanabacoa
1932,COLINA LENIN,23050013,24 DE FEBRERO E/ LOREDO Y CAMILO CIENFUEGOS,-82.3271597679173,23.1247163275143,Regla
1933,EL ARENAL,23050022,ANILLO DEL PUERTO ANTES DE ACCESO ARENAL,-82.334646937727,23.1108872720516,Regla
1934,RPTO GUITERAS,23060036,MONUMENTAL - ROTONDA ALAMAR ANTES DE 152,-82.2998102494853,23.150095220132,Habana del Este
1935,ESTADIO LATINOAMERICANO,23100023,CDA CERRO ANTES DE CARVAJAL,-82.3747031237703,23.1154257216606,Cerro
1936,PALATINO,23100004,VIA BLANCA ANTES DE PALATINO,-82.3846305413629,23.1027114174967,Cerro
1942,VELARDE,23100016,PRIMELLES E/ DAOLZ Y VELARDE,-82.3889493031528,23.1046784958028,Cerro
1961,CANCHAS DE HOCKEY,23130067,413 E/ 186 Y 188,-82.3866897919001,22.9672810765484,Santiago de las Vegas
1965,REFINERÍA ÑICO LOPEZ,23050009,VIA BLANCA ANTES DE ENTRADA ÑICO LÓPEZ,-82.3124299901121,23.1320676904988,Guanabacoa
1982,REFINERÍA ÑICO LOPEZ,23050002,VIA BLANCA PDO ENTRADA ÑICO LÓPEZ,-82.3128017180494,23.1318094108199,Guanabacoa
1999,RPTO GUITERAS,23060039,AVE COJIMAR (152) ANTES DE ROTONDA ALAMAR,-82.2994509914323,23.1490792013815,Habana del Este
2001,SEMAFORO GUANABACOA,23070007,CORRALFALSO E/ 5TA Y 6TA,-82.3190424512999,23.1235604547114,Guanabacoa
2002,COLINA LENIN,23050011,LOREDO ANTES DE 24 DE FEBRERO,-82.3275314885028,23.1243671644644,Regla
2003,EL ARENAL,23050017,ANILLO DEL PUERTO FTE ACCESO ARENAL,-82.3344289310096,23.1109290870024,Regla
2004,CINE ACAPULCO,23020049,26 E/ 37 Y KHOLY,-82.4009343620731,23.1169788675964,Revolution Square
2008,ROTONDA COJIMAR,23060038,VIA BLANCA ANTES DE 23 (94A - CIRCULAR PLAZA ESTE),-82.3015946710334,23.1426456701508,Habana del Este
2011,POLICLINICO MANTILLA,23140047,CDA MANAGUA E/ 1RA Y URSULA,-82.3489963266926,23.0714257962687,Arroyo Naranjo
2031,SEMAFORO GUANABACOA,23050003,VIA BLANCA ANTES DE ROTARIA,-82.319886276507,23.1240724606874,Guanabacoa
2216,VIRGEN DEL CAMINO,23080036,CDA VIEJA GCOA E/ B Y CDA GUINES,-82.3408973020688,23.10392907,San Miguel del Padrón
2217,YANG TSE,23020045,26 E/ 25 Y 27,-82.404517446807,23.1212424512685,Revolution Square
2223,CEMENTERIO REGLA,23050014,ROTARIA PDO MACEO,-82.3300062460101,23.1219060473302,Regla
2226,CUREF,23050021,ANILLO DEL PUERTO ANTES DE ACCESO CUREF,-82.344185427007,23.1134542668604,Regla
2249,YANG TSE,23020048,24 E/ 21 Y 23,-82.4060762486305,23.1245217061984,Revolution Square
2417,CALABAZAR,23130012,283 E/ 112 Y 108,-82.3733614011512,23.0172785058111,Boyeros
2419,PLANTA HABANA,23040014,FABRICA E/ GANCEDO Y ASPURU,-82.3592375871717,23.1162558003526,La Habana Vieja
2432,ESTACION SANTIAGO DE LAS VEGAS,23133998,CARR RINCON Y 413,-82.391721418882,22.9678739083912,Boyeros
2448,PLANTA HABANA,23040005,FABRICA E/ ASPURU Y SAN LUCAS,-82.3590824066238,23.1162139461793,La Habana Vieja
2456,REPARTO CHIBAS,23050001,VIA BLANCA PDO 23C (10),-82.3078187082024,23.1368259720846,Guanabacoa
2457,PARQUE FRATERNIDAD P13,23040010,AMISTAD E/ DRAGONES Y REINA,-82.3608626939877,23.1332780649244,La Habana Vieja
2458,LA ROSITA,23080021,CDA GUINES FTE 100,-82.3101093802679,23.0730065604174,San Miguel del Padrón
2460,CALABAZAR,23130017,279 E/ 108 Y 112,-82.3735986695324,23.0188621490338,Boyeros
2462,POLICLINICO MANTILLA,23140050,CDA MANAGUA E/ VARONA Y AZCARATE,-82.3495028469752,23.0712333625049,Arroyo Naranjo
2465,CIRCULO INFANTIL,23090024,DOLORES E/ 22 Y 21,-82.3424339622442,23.0860289536099,Diez de Octubre
2470,CEMENTO EL MORRO,23040013,DESAMPARADOS ANTES DE GANCEDO,-82.3586357131509,23.1191987143959,La Habana Vieja
2477,PALACIO MATRIMONIOS PLAYA,23010035,3RA E/ 30 Y 28,-82.4255619047619,23.1215333333333,Playa
2478,PARQUE FRATERNIDAD P7,23040016,AMISTAD E/ DRAGONES Y REINA,-82.3607983211269,23.1328762374542,La Habana Vieja
2479,CASINO DEPORTIVO,23100010,VENTO E/ ACOSTA Y OFARRIL,-82.3813578198586,23.090462437091,Cerro
2480,19 Y 70,23010062,19 E/ 70 Y 72,-82.4295972218647,23.1024120151915,Playa
2481,PABEXPO,23010073,17 E/ 184 Y 190,-82.4639706773085,23.0835456157746,Playa
2482,NAUTICO,23010018,152 E/ 5TA Y ROTONDA,-82.4576788375333,23.0928943496095,Playa
2486,RPTO PANAMERICAN,23130056,BOYEROS E/ 291 Y 293,-82.3930883625115,23.005213389496,Boyeros
2490,CIUDAD DEPORTIVA,23100006,BOYEROS ANTES DE ROTONDA,-82.3944946538278,23.1012613167682,Cerro
2492,LA PESA,23150004,101 ANTES DE 50,-82.25278283839,23.0331416095914,Cotorro
2495,LOTERIA,23150024,99 E/ 52 Y 50,-82.2519729786974,23.0366430853981,Cotorro
2503,CUPET DOLORES,23090038,DOLORES E/ 24 Y 25,-82.338384204647,23.0837066147798,Diez de Octubre
2504,POLICLINICO LAWTON,23090026,DOLORES E/ 12 Y 11,-82.3513843372658,23.0912463555824,Diez de Octubre
2509,REPARTO CHIBAS,23050010,VIA BLANCA ANTES DE 10,-82.3077109981147,23.136833441655,Guanabacoa
2515,RPTO MARIA DEL CARMEN,23130052,BOYEROS ANTES DE AVE MARIA DEL CARMEN,-82.4042696886223,23.0372925353248,Boyeros
2516,ENTRONQUE CUJAE,23130051,BOYEROS ANTES CARR CUJAE,-82.4055332813093,23.0448665157867,Boyeros
2519,HOSP CLINICO QUIRURGICO,23020034,26 ANTES DE PUENTES GRANDES,-82.3956861130332,23.1053649500941,Revolution Square
2522,CEMENTO EL MORRO,23040006,DESAMPARADOS PDO GANCEDO,-82.3589282652866,23.1194010691888,La Habana Vieja
2525,LAS CAÑAS,23130013,CDA BEJUCAL E/ CALABAZAR Y PRENSA,-82.3721248374176,23.0209117631943,Boyeros
2526,HOTEL DEAUVILLE,23030025,SAN LAZARO E/ AGUILA Y BLANCO,-82.3625261479078,23.1422764595262,Centro Habana
2527,CAFE COLON,23140004,CDA DIEZ OCTUBRE E/ BELLAVISTA Y SAN LEONARDO,-82.3639688007858,23.0813237105154,Arroyo Naranjo
2535,ROTONDA SHELL,23050006,VIA BLANCA ANTES DE ROTONDA SHELL (CDA VIEJA GCOA),-82.3276111062547,23.1100731404104,Guanabacoa
2537,ORGANOPONICO,23130068,184 E/ 405 Y ALEJANDRO GABRIEL,-82.3855052620042,22.9705382868096,Boyeros
2538,LAS CAÑAS,23130016,CDA BEJUCAL E/ PRESIDENTE GOMEZ Y PRENSA,-82.3720973728821,23.0218810225816,Boyeros
2539,LOTERIA,23150033,99 E/ 48 Y 50,-82.2527420329052,23.0365136724591,Cotorro
2545,CVD JOSE MARTI,23020018,3RA E/ F Y E,-82.3968664365506,23.1434554159067,Revolution Square
2546,PALACIO MATRIMONIOS MAYIA,23090050,MAYIA RODRIGUEZ E/ VISTA ALEGRE Y CARMEN,-82.37783352439,23.0932128803114,Diez de Octubre
2548,AVE FLORES,23140039,AVE DE LAS FLORES E/ MACEO Y 4TA,-82.3284533739915,23.0407156538285,Arroyo Naranjo
2642,19 Y 70,23010067,19 E/ 70 Y 68,-82.4288891045001,23.1032452828522,Playa
2647,PUNTO EXPEDICION P-10 VIBORA,23093998,PATROCINIO E/ DIEZ OCTUBRE Y PARRAGA,-82.3659239104848,23.0896479546857,Diez de Octubre
2649,CVD JOSE MARTI,23020019,E E/ 3RA Y 5TA,-82.3969945071425,23.1427236366214,Revolution Square
2653,ROTONDA SHELL,23050005,VIA BLANCA ANTES DE ROTONDA SHELL,-82.3261653098326,23.112101161317,Guanabacoa
2661,IGLESIA SAN JUAN BOSCO,23090048,STA CATALINA E/ GOSS Y LA SOLA,-82.3789884993021,23.0962502366191,Diez de Octubre
2662,ZOOLOGICO,23020035,26 PDO AVE ZOOLOGICO,-82.399362312229,23.1108171874003,Revolution Square
2663,CEMENTERIO REGLA,23050025,ROTARIA ANTES DE MACEO,-82.3298676811492,23.1219115946552,Regla
2665,CUREF,23050018,ANILLO DEL PUERTO FTE CUREF,-82.3440135311274,23.1133425084431,Regla
2668,PARQUE FRATERNIDAD,23040009,REINA E/ PRADO E INDUSTRIA,-82.3593766953477,23.1328001146839,La Habana Vieja
2669,SECUNDARIA DESEMBARCO DEL GRANMA,23140057,AVE ALMENDROS E/ CAMILO CIENFUEGOS Y ROSALES,-82.3371766644087,23.0418788544838,Arroyo Naranjo
2670,MANTILLA,23140046,CDA MANAGUA E/ DELGADO Y PROGRESO,-82.3411593373795,23.0673761542413,Arroyo Naranjo
2671,DITU DOBLE VIA,23130069,184 E/ 397 Y 395,-82.3850917407481,22.9738426738921,Boyeros
2675,PUENTE SANTA FE,23070013,CARR CAMPO FLORIDO ANTES DE CALLEJON DE BERROA,-82.269260348108,23.1287180782554,Guanabacoa
2682,PARCELACION,23140038,CARR MANAGUA FTE AVE 7MA,-82.3252344127987,23.0432953285469,Arroyo Naranjo
2683,VIBORA P10,23090010,CDA DIEZ OCTUBRE E/ PATROCINIO Y OFARRIL,-82.3656942118667,23.0887824642284,Diez de Octubre
2691,VENTO Y CAMAGUEY,23100020,VENTO PDO CAMAGUEY,-82.3812234727773,23.0832708854863,Cerro
2694,LOMA DE LOS ZAPOTES,23080014,CDA GUINES ANTES DE B,-82.3353213168148,23.0974383315068,San Miguel del Padrón
2699,EL MIKITO,23070010,CORRALFALSO E/ APODACA Y CARR STA MARIA ROSARIO,-82.2957373620789,23.1195906079098,Guanabacoa
2700,PALACIO MATRIMONIOS GCOA,23070142,CORRALFALSO E/ CORONA Y ANGELES,-82.3005238385718,23.1201109564587,Guanabacoa
2710,EL PASO,23130003,188 ANTES DE 397,-82.3860213316107,22.9742565314447,Boyeros
2717,PARCELACION,23140059,CARR MANAGUA E/ 7MA Y 5TA,-82.3252907461108,23.0436090519144,Arroyo Naranjo
2718,13 DE MARZO,23140053,CDA MANAGUA FTE LOS MANGOS,-82.3336408912054,23.0591577470685,Arroyo Naranjo
2725,UNIVERSIDAD HABANA,23020059,L E/ 27 NOVIEMBRE Y SAN LAZARO,-82.381165334531,23.1373913213616,Revolution Square
2727,PALACIO MATRIMONIOS GCOA,23070147,CORRALFALSO E/ CORONA Y NAZARENO,-82.3011402002693,23.120143888025,Guanabacoa
2728,RELOJ CLUB,23130049,BOYEROS PDO SUR,-82.4027359110564,23.0575064948747,Boyeros
2735,MULGOBA,23130004,BOYEROS E/ 375 Y 373,-82.3843934579011,22.9798856879195,Boyeros
2739,LA COUBRE,23040012,DESAMPARADOS Y LA COUBRE,-82.3547386383171,23.1262931610144,La Habana Vieja
2744,TERMINAL CALVARIO,23143998,CARR MANAGUA S/N E/ C.CIENFUEGOS Y AVE DE LAS FLORES,-82.3269862114462,23.0441175447621,Arroyo Naranjo
2750,UNIVERSIDAD HABANA,23020043,27 NOVIEMBRE E/ L Y K,-82.3821377627207,23.1373562159626,Revolution Square
2753,PUENTE HIERRO FINAL P3,23020046,26 E/ 11 Y 13,-82.4100268899197,23.1272550302427,Revolution Square
2754,POLICLINICO NENINGER,23060002,5TA E/ 186 Y ACCESO POLICLINICO,-82.2587821331562,23.1692190123168,Habana del Este
2755,HANOI,23060011,7MA E/ 160 B Y 160 C,-82.2814156699172,23.1554443959103,Habana del Este
2757,GRUPOS ELECTROGENOS,23050015,ROTARIA E/ RECREO Y SIMPATIA,-82.3341488123832,23.1206485897439,Regla
2773,PUENTE HIERRO P3,23020047,11 E/ 24 Y 26,-82.409821193815,23.1279249134005,Revolution Square
2775,HANOI,23060276,7MA E/ 160 B Y 160 C,-82.2813972790382,23.1552768627837,Habana del Este
2777,MULGOBA,23130025,BOYEROS E/ 371 Y 373,-82.384368778768,22.98082715845,Boyeros
2779,AVE FLORES,23140058,AVE DE LAS FLORES E/ JAZMINES Y 3RA,-82.3282361005332,23.0407111842063,Arroyo Naranjo
2802,LA COUBRE,23040007,DESAMPARADOS FTE LA COUBRE,-82.3542201618981,23.1265573007396,La Habana Vieja
2808,CEMENTERIO DE LOS JUDIOS,23070002,CORRALFALSO ANTES DE AVE DE LOS MARTIRES,-82.2820925344445,23.1216023694793,Guanabacoa
2819,LAS MARIAS,23080022,CDA GUINES PDO CALLEJÓN LAS MARIAS,-82.3030575260161,23.0690433084887,San Miguel del Padrón
2820,SAN FRANCISCO,23080002,CDA GUINES E/ DIEGO FRANCHI Y VIGIA,-82.2984883629634,23.0657608782558,San Miguel del Padrón
2821,SAN FRANCISCO,23080023,CDA GUINES E/ VARELA Y DIEGO FRANCHI,-82.2985817827282,23.0657589813322,San Miguel del Padrón
2822,SIBONEY,23080024,CDA GUINES E/ A Y SAN LUIS,-82.2930532642512,23.0608007179991,San Miguel del Padrón
2823,SIBONEY,23080001,CDA GUINES E/ SIBONEY Y EMILIO MOLA,-82.2926437830063,23.0606142627344,San Miguel del Padrón
2824,SAN PEDRO,23150012,101 PDO SAN PEDRO,-82.2869315521001,23.0571335772941,Cotorro
2825,SAN PEDRO,23150011,101 E/ CALLEJON FINCA LAS MINAS Y RAMAL GIRO P.ANILLO,-82.2864236015751,23.0567887535195,Cotorro
2826,LAS GRANJAS,23150010,101 E/ LINDERO Y VILLA ROSA,-82.2831968941346,23.054494552156,Cotorro
2827,LAS GRANJAS,23150013,101 E/ BLANCO Y VILLA ROSA,-82.2841715586123,23.0552083099289,Cotorro
2829,PALACE,23150009,101 E/ 220 Y 219,-82.2780246364458,23.0508519798222,Cotorro
2830,PALACE,23150014,101 E/ 218 Y 10,-82.2787999525096,23.0513902042044,Cotorro
2831,POLICLINICO EFRAIN MAYOR,23150008,101 E/ 10 Y 8,-82.2745730807824,23.0484786635691,Cotorro
2832,POLICLINICO EFRAIN MAYOR,23150015,101 E/ 223 Y 8,-82.2750459407013,23.048740243061,Cotorro
2833,GARITA DEL DIEZMERO,23080020,CDA GUINES ANTES DE A,-82.3148193932396,23.0763538018397,San Miguel del Padrón
2837,SECUNDARIA DESEMBARCO DEL GRANMA,23140040,AVE ALMENDROS E/ LAURELES Y ROSALES,-82.3362727953407,23.0410179287588,Arroyo Naranjo
2839,PRIMERO DE MAYO,23130005,BOYEROS ANTES DE 1RO DE MAYO,-82.3859501916997,22.9881078563946,Boyeros
2850,SEMAFORO GUANABACOA,23050008,VIA BLANCA PDO CORRALFALSO,-82.3200128799337,23.1239053565597,Guanabacoa
2853,COTORRO,23150007,101 E/ 20 Y 18,-82.2693329137385,23.0447974891574,Cotorro
2854,COTORRO,23150016,101 E/ 20 Y 22,-82.2673704985931,23.0433205672697,Cotorro
2855,TERMINAL COTORRO,23150006,101 PDO 34,-82.2621420956412,23.0396333902382,Cotorro
2856,TERMINAL COTORRO,23150017,101 E/ 32 Y 32A,-82.2623189573883,23.0396970969272,Cotorro
2857,BELLO PALMAR,23150005,101 ANTES DE 99,-82.2578811377144,23.0366922716226,Cotorro
2858,ALBERRO NUEVO,23150020,101 E/ 54 Y 58,-82.2504217245336,23.031233245547,Cotorro
2859,LOMA TIERRA,23150021,62 E/ 101 Y 99,-82.2448104542794,23.0280284486188,Cotorro
2860,LOMA TIERRA,23150002,62 E/ 97 Y 99,-82.244842050189,23.0285119659085,Cotorro
2861,ALBERRO P2,23150035,99 ANTES DE 62,-82.2433742807754,23.0360294247044,Cotorro
2862,ALBERRO,23150022,99 PDO 62,-82.2438422518852,23.0360581538806,Cotorro
2863,ALBERRO P7,23150001,99 ANTES DE 62,-82.243796135016,23.0361349757315,Cotorro
2864,TERMINAL ALBERRO,23153999,"AVE 99 Y FINAL, ALBERRO",-82.2389828973882,23.0370331758535,Cotorro
2865,EP LUIS R. PAYARES,23150023,99 E/ 54 Y 52A,-82.2507436395557,23.0365496571607,Cotorro
2867,EP LUIS R. PAYARES,23150034,99 E/ 54 Y 56,-82.2488744943373,23.0364002762949,Cotorro
2868,BELLO PALMAR,23150018,101 ANTES DE 38,-82.2585663708633,23.0370373968685,Cotorro
2874,CAFETERIA AVE 99,23150025,99 E/ 44 Y 42A,-82.2548502259702,23.0367267218903,Cotorro
2875,ALBERRO NUEVO,23150003,101 E/ 58 Y 54,-82.2502316878081,23.0312542414313,Cotorro
2882,IGLESIA SAN JUAN BOSCO,23090049,STA CATALINA E/ GOSS Y GRACIELA,-82.379795761432,23.0963416137055,Diez de Octubre
2883,SECTOR RPTO ELECTRICO,23140069,PRIMER ANILLO FTE CAMINO FINCA 236,-82.3350903414103,23.0509993676095,Arroyo Naranjo
2887,PRIMERO DE MAYO,23130024,BOYEROS ANTES DE 1RO DE MAYO,-82.3864918818389,22.9895369916743,Boyeros
2890,POLICLINICO RPTO ELECTRICO,23140041,CAMILO CIENFUEGOS E/ 6TA Y 5TA,-82.3343710415025,23.0446280341285,Arroyo Naranjo
2893,HOSP NAVAL,23060015,MUNUMENTAL PDO PUENTE RPTO CAMILO CIENFUEGOS,-82.3317675198193,23.1554216348649,Habana del Este
2895,MUSEO REVOLUCION,23040047,MISIONES E/ TEJADILLO Y CHACON,-82.3565088846274,23.1407640321527,La Habana Vieja
2896,RIO MARTIN PEREZ,23080034,VIA BLANCA E/ CENTRAL Y PUENTE MARTIN PEREZ,-82.3303507741218,23.1094836857908,San Miguel del Padrón
2906,ACADEMIA NAVAL,23060033,192 Y ENTRADA ACADEMIA NAVAL,-82.2525604959434,23.1745907752071,Habana del Este
2938,LA WARD,23100012,STA CATALINA E/ 5TA Y 6TA,-82.3880336716147,23.098080584418,Cerro
2940,HOSP NAVAL,23060056,DESVIO HOSP NAVAL Y ENTRADA HOSPITAL,-82.3321631488058,23.154571664468,Habana del Este
2941,HANOI,23060022,160 E/ 5TA G Y 160 C,-82.2815405439089,23.1576588397331,Habana del Este
2942,MICRO X,23060032,5TA PDO 190,-82.2532727207265,23.1696328114387,Habana del Este
2944,BOYEROS,23130007,BOYEROS E/ 323 Y 321,-82.3870252561904,22.9965539285843,Boyeros
2945,CDA BEJUCAL Y SOTO,23130015,CDA BEJUCAL ANTES DE SOTO,-82.3701939075127,23.0326200746676,Arroyo Naranjo
2946,POLICAKE,23140006,CDA DIEZ OCTUBRE E/ GUSTAVO SANCHEZ Y MIGUEL,-82.3631077980728,23.0800966628124,Arroyo Naranjo
2947,GRUPOS ELECTROGENOS,23050024,ROTARIA ANTES DE CALLEJON DEL SAPO,-82.3340379485564,23.1206970612551,Regla
2949,PARQUE FRATERNIDAD,23040031,REINA E/ AMISTAD E INDUSTRIA,-82.3603306924851,23.1325718496589,La Habana Vieja
2950,HOSP CALIXTO GARCIA,23020042,UNIVERSIDAD ANTES DE RONDA,-82.3835460514574,23.1340132982456,Revolution Square
2951,MANTILLA,23140051,CDA MANAGUA E/ ROOSEVELT Y PROGRESO,-82.3416638096547,23.0682151880682,Arroyo Naranjo
2953,BOYEROS,23130022,BOYEROS E/ 321 Y 323,-82.3872706466592,22.9969821307198,Boyeros
2962,PARQUE LENIN,23140064,PRIMER ANILLO ANTES DE CARR PARQUE LENIN,-82.3572200306153,23.0394480116389,Arroyo Naranjo
2968,BARRIO OBRERO,23080037,VIA BLANCA ANTES DE 1RO DE JUNIO,-82.3357861692071,23.1077561099884,San Miguel del Padrón
2974,RPTO COMODORO,23140068,PRIMER ANILLO ANTES DE CDA SAN AGUSTIN,-82.3425044486581,23.0451637518054,Arroyo Naranjo
2976,TEATRO MELLA,23020032,LINEA E/ B Y A,-82.3980044409351,23.1383085318389,Revolution Square
2979,19 Y 44,23010066,19 E/ 48 Y 46,-82.4243238359884,23.109988559498,Playa
2980,FABRICA ALUMINIO,23050007,VIA BLANCA PDO MASSIP (CALLEJON DEL SAPO),-82.3249412581238,23.1176096820989,Guanabacoa
2982,ZONA XVII,23060030,5TA ANTES DE 180,-82.264335735387,23.1688741199196,Habana del Este
2983,ZONA X,23060277,7MA E/ 162 Y 160 E,-82.2767564258605,23.155924231946,Habana del Este
2985,CDA BEJUCAL Y SOTO,23130014,CDA BEJUCAL ANTES DE SOTO,-82.370384415439,23.031637542992,Boyeros
2987,PARAJON,23140017,CDA BEJUCAL ANTES DE CARMEN,-82.3684298492499,23.0373002025358,Arroyo Naranjo
2994,MATERNIDAD DE LINEA,23020026,LINEA Y H,-82.3913023178657,23.1418633083602,Revolution Square
2995,LINEA Y 12,23020031,LINEA E/ 10 Y 12,-82.4044518989411,23.1333885030017,Revolution Square
2996,TUNEL LINEA,23020029,LINEA E/ 18 Y 16,-82.4072273924339,23.131406489714,Revolution Square
2997,TUNEL LINEA,23020030,LINEA E/ 16 Y 18,-82.4070524756576,23.1313179296705,Revolution Square
3005,RESTAURANTE POTIN,23020027,LINEA E/ PASEO Y A,-82.3990770649377,23.137659821255,Revolution Square
3014,ZAMORA,23110036,120 E/ 25 Y 29 E,-82.4370721152304,23.0856925208533,Marianao
3019,PERIODICO GRANMA,23100032,AYESTARAN E/ PEDRO PEREZ Y GRAL SUAREZ,-82.3829672367097,23.1201981646012,Revolution Square
3025,TEATRO MARTI,23040019,ZULUETA E/ DRAGONES Y TENIENTE REY,-82.3576743588594,23.1347813861935,La Habana Vieja
3026,PARQUE LA MAESTRANZA,23040021,AVE PUERTO E/ CHACON Y PENA POBRE,-82.352217335938,23.1433499776814,La Habana Vieja
3027,MUELLE CABALLERIA,23040025,AVE PUERTO FTE OREILLY,-82.3483553928311,23.1409711464642,La Habana Vieja
3028,MUELLE CABALLERIA,23040022,AVE PUERTO ANTES DE OREILLY,-82.3488296206107,23.1411082617263,La Habana Vieja
3030,MUELLE DE LUZ,23040024,AVE PUERTO FTE ACOSTA,-82.3475918411038,23.1328746752154,La Habana Vieja
3031,GARITA DEL DIEZMERO,23080005,CDA GUINES PDO CDA SMP,-82.3141300854469,23.0760497236043,San Miguel del Padrón
3039,ESQUINA DE TEJAS,23100024,CDA CERRO E/ BUENOS AIRES Y DIEZ OCTUBRE,-82.3716039086189,23.1166626348466,Cerro
3040,CIUDAD DEPORTIVA,23100003,VIA BLANCA E/ COLON Y PRENSA,-82.3900467423431,23.1024712639594,Cerro
3042,ESQUINA DE TEJAS,23100025,MONTE E/ SAN JOAQUIN Y ROMAY,-82.3693992358606,23.1184291132974,Cerro
3046,PAPELERA PUENTES GRANDES,23010041,CDA PUENTES GRANDES FTE CAÑONGO,-82.4065529585577,23.0998232737393,Revolution Square
3047,LA CEIBA,23010042,CDA PUENTES GRANDES ANTES DE 58B,-82.4137659197522,23.099738977277,Playa
3048,LA CEIBA,23010039,CDA PUENTES GRANDES PDO 58B,-82.4136537267327,23.0997128553484,Playa
3049,ALTURAS DE BELEN,23110028,51 ANTES DE 74,-82.4160619757483,23.0936700858409,Marianao
3070,DOLORES,23080016,CDA GUINES ANTES DE DOLORES,-82.3275727595724,23.0836319777107,San Miguel del Padrón
3075,PARAJON,23140037,CDA BEJUCAL ANTES DE AVE VARONA,-82.3681399854802,23.0378593298116,Arroyo Naranjo
3077,LOS SITIOS,23040051,MONTE E/ RASTRO Y CARMEN,-82.3649567282502,23.1260846965653,Centro Habana
3089,RPTO COMODORO,23140063,PRIMER ANILLO ANTES DE CDA SAN AGUSTIN,-82.3418710670239,23.0459834802381,Arroyo Naranjo
3101,LA WARD,23100017,STA CATALINA E/ PRIMELLES Y AVE OCUJES,-82.388106000413,23.0979968729798,Cerro
3108,BASE TAXIS,23060004,5TA E/ 172 Y 174,-82.2699933420786,23.1682132006833,Habana del Este
3109,RPTO GUITERAS,23060013,DOBLE VIA ALAMAR ANTES DE ROTONDA ALAMAR,-82.2980877747072,23.1518481412829,Habana del Este
3110,LA SORTIJA,23040064,MONTE E/ ZULUETA Y CARDENAS,-82.3574757018964,23.1330081874353,La Habana Vieja
3112,PLAYA,23010079,120 E/ 5TA B Y 5TA F,-82.4521506529531,23.092558610452,Playa
3113,EL TRIGAL,23140018,CDA BEJUCAL E/ PINAR Y ROOSEVELT,-82.3665338126296,23.0398049470734,Arroyo Naranjo
3117,LOS TRES PICOS,23060040,MONUMENTAL ANTES DE ACCESO A RPTO GUITERAS,-82.3107415360104,23.1563943932857,Habana del Este
3118,MONUMENTAL UM,23070022,MONUMENTAL PDO DESVIO PRIMER ANILLO,-82.2669240182924,23.121282289272,Guanabacoa
3119,LOS TRES PICOS,23060014,MONUMENTAL PDO PUENTE VIA TUNEL,-82.3103068147993,23.1565098682115,Habana del Este
3120,LOS TRES PICOS,23060019,MONUMENTAL ANTES DE PUENTE VIA TUNEL,-82.310023188922,23.1562491819955,Habana del Este
3121,RPTO GUITERAS,23060049,MONUMENTAL - ROTONDA ALAMAR Y DOBLE VIA ALAMAR,-82.2985885928929,23.1512612469757,Habana del Este
3122,BERROA,23060047,MONUMENTAL PDO ACCESO BERROA,-82.2804800519252,23.1407635932593,Habana del Este
3123,BERROA,23060048,MONUMENTAL PDO ACCESO BERROA,-82.2817399091098,23.1417368148592,Habana del Este
3124,PUENTE SANTA FE,23070023,MONUMENTAL PDO CARR CAMPO FLORIDO,-82.2711289484785,23.1289095963361,Guanabacoa
3125,HOTEL PANAMERICANO,23060041,PASEO PANAMERICANO E/ 7MA (32) Y 7MA A,-82.3070235133333,23.1588379826736,Habana del Este
3126,HOTEL PANAMERICANO,23060020,PASEO PANAMERICANO PDO 7MA (32),-82.3072452433333,23.1589263998766,Habana del Este
3127,PLANTA DE ASFALTO,23070016,PRIMER ANILLO Y CARR PLANTA DE ASFALTO,-82.265164016749,23.1099296982092,Guanabacoa
3128,PLANTA DE ASFALTO,23070021,PRIMER ANILLO Y CARR PLANTA DE ASFALTO,-82.2649283391223,23.1099108300834,Guanabacoa
3129,EL REPOLLO,23070017,PRIMER ANILLO ANTES DE CARR PEÑALVER,-82.2650088746347,23.0993586458067,Guanabacoa
3130,EL REPOLLO,23070020,PRIMER ANILLO PDO CARR PEÑALVER,-82.2647224203453,23.0988734589991,Guanabacoa
3131,GRANJA GUANABACOA,23070018,PRIMER ANILLO Y ACCESO GRANJA GUANABACOA,-82.2668766139,23.087252117836,Guanabacoa
3132,GRANJA GUANABACOA,23070019,PRIMER ANILLO Y ACCESO GRANJA GUANABACOA,-82.2668050026245,23.0867519439269,Guanabacoa
3133,RANCHO ELINA,23150040,PRIMER ANILLO Y RANCHO ELINA,-82.2779621613848,23.0658110027447,Cotorro
3134,RANCHO ELINA,23150037,PRIMER ANILLO Y RANCHO ELINA,-82.2782507001882,23.0658581496759,Cotorro
3135,PUENTE CALVARIO,23140070,PRIMER ANILLO BAJO PUENTE CARR MANAGUA,-82.3269653392281,23.0527388600857,Arroyo Naranjo
3136,PUENTE CALVARIO,23140061,PRIMER ANILLO BAJO PUENTE CARR MANAGUA,-82.3269691342285,23.0529547917969,Arroyo Naranjo
3139,LA FORTUNA,23130070,COSTA COSTA PDO CDA ARDAY,-82.3774226117339,23.0446469827485,Boyeros
3140,TRANSTUR OMNIBUS,23110051,CARR CUJAE FTE BASE TRANSTUR OMNIBUS,-82.4123350803704,23.0442000378976,Marianao
3141,TRANSTUR OMNIBUS,23110052,CARR CUJAE ANTES DE ACCESO BASE TRANSTUR OMNIBUS,-82.4131620412494,23.0444201694533,Marianao
3142,COLABORACION MEDICA,23110039,CARR CUJAE Y ESC ENFERMERIA,-82.4169332542114,23.0464376196289,Marianao
3143,COLABORACION MEDICA,23110034,CARR CUJAE Y ESC ENFERMERIA,-82.4163981440635,23.0460482911026,Marianao
3144,VILLA PANAMERICANA,23060042,PASEO PANAMERICANO E/ 3RA E (27) Y 5TA (28),-82.3054105395768,23.1637398483024,Habana del Este
3145,VILLA PANAMERICANA P8,23060043,PASEO PANAMERICANO E/ 5TA (28) Y 3RA E (27),-82.3056560422685,23.1637826286732,Habana del Este
3146,CAPDEVILA,23130050,BOYEROS PDO AVE VARONA,-82.4044533920326,23.0504010873,Boyeros
3147,EL TRIGAL,23140036,CDA BEJUCAL ANTES DE CDA ARDAY,-82.366191690075,23.0402667078428,Arroyo Naranjo
3148,ZAMORA,23110037,29 E E/ 120 Y GIRO A 25,-82.4380709574422,23.0857680295007,Marianao
3149,ESCUELA NACIONAL DE ARTE,23010081,120 ANTES DE ENTRADA ENA,-82.4457939470179,23.0906840175928,Playa
3150,ESCUELA NACIONAL DE ARTE,23010078,120 FTE ENTRADA ENA,-82.4454606625736,23.0908259878279,Playa
3152,TERMINAL DE OMNIBUS SAN AGUSTIN,23123999,"AVE 27 Y 272, SAN AGUSTIN",-82.4787393317909,23.0527646260588,La Lisa
3153,EL FRANCES,23120034,272 E/ 27 Y 25 B,-82.4773611230236,23.052730775505,La Lisa
3155,CUPET SAN AGUSTIN,23120031,23 E/ 240 Y 238,-82.4743226754379,23.0616991651154,La Lisa
3156,CUPET SAN AGUSTIN,23120035,23 ANTES DE CUPET 244,-82.4736812549037,23.062488189198,La Lisa
3157,SUPERMERCADO 222,23120036,23 FTE 222 A,-82.4683286906577,23.0675609850304,La Lisa
3158,SUPERMERCADO 222,23120032,23 E/ 222 Y 222 A,-82.4680889951575,23.0677548990223,La Lisa
3159,EL PEDREGAL,23120033,23 E/ 212 A Y 3,-82.4609034744236,23.0734411472562,La Lisa
3160,EL PEDREGAL,23120037,23 E/ 202 Y 204,-82.4608351301188,23.0734950131838,La Lisa
3161,BIOTECNOLOGIA,23010052,31 ANTES DE 188 (ENTRADA CIGB),-82.4518367448501,23.0730577856951,Playa
3162,BIOTECNOLOGIA,23010077,31 PDO 188 (ENTRADA CIGB),-82.4519286332442,23.0730105292205,Playa
3163,CIENCIAS MEDICAS GIRON,23010053,31 ANTES DE 146,-82.4456243376396,23.0786142797968,Playa
3164,CIENCIAS MEDICAS GIRON,23010076,31 PDO 146,-82.4457629909431,23.078555467265,Playa
3165,EL ROMERILLO,23010070,9NA E/ 7MA Y 112,-82.447318195076,23.0966805350876,Playa
3166,EL ROMERILLO,23010059,9NA ANTES DE 110,-82.4470125738563,23.0965124202641,Playa
3167,PUENTE CALABAZAR,23140019,CDA BEJUCAL FTE ASILO LLANSO,-82.3645818553833,23.0434266458125,Arroyo Naranjo
3168,EL FRANCES,23120030,27 E/ 272 Y 268,-82.476632520864,23.0531243545746,La Lisa
3169,EL FRANCES,23120012,27 ANTES DE 272,-82.4769355290013,23.0528590976482,La Lisa
3177,TERMINAL HAIPHONG,23040065,ANILLO DEL PUERTO ANTES DE ACCESO HAIPHONG,-82.3514092628706,23.1183747075323,La Habana Vieja
3178,QUEJERETA,23010060,9NA E/ 86 Y 88,-82.4399737015768,23.1003219845757,Playa
3179,QUEJERETA,23010069,9NA E/ 88 Y 90,-82.4404640426525,23.0999167655437,Playa
3180,DAAFAR,23010061,84 E/ 17 Y 15,-82.4360807566932,23.0986495539744,Playa
3181,DAAFAR,23010068,84 E/ 17 Y 19,-82.4353621781349,23.098213980219,Playa
3182,LA PELOTA,23020008,23 E/ 14 Y 12,-82.4001906925826,23.1268447191823,Revolution Square
3183,LA LISA,23120001,51 E/ 156 Y 158,-82.4422493284267,23.0680531452201,La Lisa
3184,COPPELIA,23020002,23 E/ K Y L,-82.3839236930477,23.1391603527191,Revolution Square
3185,COPPELIA,23020011,23 E/ K Y J,-82.3846900401749,23.1385825409405,Revolution Square
3186,HOSP EMERGENCIAS,23030021,SALVADOR ALLENDE E/ HOSPITAL Y ESPADA,-82.3758411206446,23.1313226035694,Centro Habana
3187,TERMINAL FFCC,23040027,ARSENAL E/ CIENFUEGOS Y CARDENAS,-82.3564784354931,23.1295802083694,La Habana Vieja
3188,MUELLE DE LUZ,23040023,AVE PUERTO E/ LUZ Y ACOSTA,-82.3475772668426,23.1335948732864,La Habana Vieja
3189,LA PUNTA,23040026,PRADO E/ REFUGIO Y COLON,-82.3586145647956,23.1418541151352,La Habana Vieja
3190,HOTEL DEAUVILLE,23030024,SAN LAZARO E/ MANRIQUE Y CAMPANARIO,-82.3656636937821,23.1414179280499,Centro Habana
3191,PARQUE 30 Y 31,23010047,31 E/ 26 Y 30,-82.4173405560779,23.1163322273367,Playa
3192,PARQUE 30 Y 31,23010048,31 E/ 26 Y 30,-82.4174535850933,23.1164678752421,Playa
3193,CINE AMBASSADOR,23010064,44 E/ 29 Y 31,-82.4188274764017,23.1107997197513,Playa
3194,CINE AMBASSADOR,23010065,44 E/ 33 Y 35,-82.4170234352352,23.1104328394497,Playa
3195,CINE AMBASSADOR,23010046,31 E/ 42 Y 44,-82.4179467746045,23.1113718492618,Playa
3196,CINE AMBASSADOR,23010049,31 E/ 44 Y 42,-82.418120269527,23.1112826887854,Playa
3197,UNIDAD PNR LA LISA,23120005,51 PDO 244,-82.4610044157174,23.0514870363471,La Lisa
3198,PUENTE CALABAZAR,23140035,CDA BEJUCAL Y ASILO LLANSO,-82.3643851505728,23.0439885717877,Arroyo Naranjo
3199,PLAZA MARIANAO,23110033,124 E/ 51 Y 49,-82.4322943359068,23.0729906442888,Marianao
3200,PLAZA MARIANAO,23110023,51 E/ 57 Y 130,-82.4330551902797,23.0718153179461,Marianao
3201,POLICLINICO PLAYA,23010051,31 E/ 64 Y 66,-82.420956976843,23.0994578980378,Playa
3202,HOSP FRANK PAIS,23120023,51 E/ ENTRADA HOSP FRANK PAIS Y 202,-82.4487981265629,23.065260862261,La Lisa
3203,ARIMAO,23120003,51 E/ 218 Y 220,-82.4552051828604,23.0597263272785,La Lisa
3204,ARIMAO,23120022,51 E/ 218 Y 220,-82.4552844035738,23.0596601487949,La Lisa
3205,CINCO PALMAS,23120021,51 E/ 232 Y 234,-82.4586806437223,23.0546303447597,La Lisa
3206,CINCO PALMAS,23120004,51 E/ 232 Y 230,-82.4583036985234,23.0554569657481,La Lisa
3207,LA LISA,23120024,51 E/ 156 Y 158,-82.4421825240572,23.0681030226352,La Lisa
3208,HOSP FRANK PAIS,23120002,51 E/ 194 Y 196,-82.448112258549,23.0662026977061,La Lisa
3209,SUPERMERCADO 250,23120027,51 ANTES DE 37,-82.4663270237273,23.0531427349029,La Lisa
3210,SUPERMERCADO 250,23120028,51 ANTES DE 37,-82.4657245463434,23.0527485304258,La Lisa
3211,SAN AGUSTIN,23120026,31 E/ 250 Y 252,-82.4707985984544,23.0556591338491,La Lisa
3212,SAN AGUSTIN,23120029,31 FTE 252,-82.4710515201568,23.0553961803818,La Lisa
3213,NOVIA DEL MEDIODIA,23120008,51 ANTES DE ROTONDA DEL MEDIODIA,-82.4710945379043,23.0333597750861,La Lisa
3214,NOVIA DEL MEDIODIA,23120017,51 PDO ROTONDA DEL MEDIODIA,-82.4713412569739,23.0330266787124,La Lisa
3215,JUAN DE DIOS FRAGA,23120010,310 E/ 31 Y 274 (CARR ARROYO ARENAS),-82.4795444828898,23.045232890946,La Lisa
3216,JUAN DE DIOS FRAGA,23120015,310 ANTES DE 31,-82.4803277687491,23.0457607566856,La Lisa
3217,IPK,23120016,310 ANTES DE ENTRADA IPK,-82.4747869659273,23.0370618942736,La Lisa
3218,IPK,23120009,310 ANTES DE ENTRADA IPK,-82.4743975422964,23.0363886403665,La Lisa
3219,POLICLINICO PULIDO HUMARAN,23120018,51 E/ 286 Y 288,-82.4665067157681,23.0397533311713,La Lisa
3220,POLICLINICO PULIDO HUMARAN,23120007,51 E/ 286 Y 288,-82.4664978077315,23.0397467991554,La Lisa
3221,ARROYO ARENAS,23120019,51 ANTES DE 274,-82.4654181978339,23.0443782102487,La Lisa
3222,FONTANAR,23130053,BOYEROS ANTES DE 243,-82.399749728729,23.0259023115573,Boyeros
3223,RPTO BARBOSA,23120014,23 ANTES DE 21 E,-82.4817827866667,23.0526120258031,La Lisa
3224,PLAZA MARIANAO,23110032,51 E/ 124 Y 122,-82.4314770832543,23.0730600598787,Marianao
3225,51 Y 114,23110031,51 E/ 110 Y 112,-82.4255761383729,23.0767937226775,Marianao
3226,51 Y 114,23110024,51 E/ 112 Y 110,-82.4256518194611,23.0767429946929,Marianao
3227,100 Y 51,23110030,51 PDO 100,-82.4223855224701,23.0805606636652,Marianao
3228,100 Y 51,23110025,51 E/ 96 Y 98,-82.4211463419052,23.0822772774347,Marianao
3229,LUCEVAN,23110029,51 E/ 49 Y 88,-82.4174555005982,23.0867717533136,Marianao
3230,LUCEVAN,23110026,51 E/ 86 Y 88,-82.4170628962634,23.0874400313247,Marianao
3231,ALTURAS DE BELEN,23110027,51 E/ 76 Y 78,-82.4160867028874,23.0921932953748,Marianao
3232,HOSP CLINICO QUIRURGICO,23020057,PUENTES GRANDES E/ 26 Y DIEGO VELAZQUEZ,-82.3955781152149,23.1062734489613,Revolution Square
3233,TALLERES CIENAGA,23020055,PUENTES GRANDES ANTES DE BOYEROS,-82.3928794222654,23.1082616156117,Revolution Square
3234,TALLERES CIENAGA,23020056,CDA CERRO E/ COLON Y PRENSA,-82.3907838637122,23.1085156059324,Cerro
3235,HOSP COVADONGA,23100022,CDA CERRO ANTES DE ENTRADA A HOSP (DOMINGUEZ),-82.3797014059003,23.1131952370503,Cerro
3236,HOSP COVADONGA,23100027,CDA CERRO E/ SAN PABLO Y AUDITOR,-82.3784384618029,23.1143626716577,Cerro
3237,CUATRO CAMINOS,23100036,MONTE E/ PILA Y MATADERO,-82.3669798799083,23.122147897153,Cerro
3239,LOS SITIOS,23040028,MONTE E/ FIGURAS Y CARMEN,-82.364320035598,23.1270103118268,Centro Habana
3240,PARQUE FRATERNIDAD,23040015,INDUSTRIA E/ REINA Y DRAGONES,-82.3600922977573,23.1332557228496,La Habana Vieja
3241,PARQUE FRATERNIDAD P14,23040030,AMISTAD E/ REINA Y ENRIQUE BARNET (ESTRELLA),-82.3606848953491,23.132213932354,La Habana Vieja
3242,RPTO BARBOSA,23120011,23 PDO 21 E,-82.4816431961808,23.0529759506023,La Lisa
3295,RPTO MARTI,23100005,BOYEROS ANTES DE PALMAR,-82.3944825451456,23.0863317969579,Cerro
3296,CUPET SANTA CATALINA,23100018,STA CATALINA E/ PALATINO Y VENTO,-82.3834469825677,23.0970989775481,Cerro
3347,EMCC CAPDEVILA,23130074,COSTA COSTA ANTES DE CARR VARONA,-82.3876429459642,23.0408019852518,Boyeros
3361,TERMINAL DE OMNIBUS SANTA AMALIA,23143999,"ALVARADO ESQ MIGUEL, RPTO SANTA AMALIA",-82.368024994887,23.0773957568524,Arroyo Naranjo
3365,LA PALMA,23140028,PORVENIR E/ GEORGIA Y ATLANTA,-82.3575068641302,23.0750675511585,Arroyo Naranjo
3379,EMCC CAPDEVILA,23130071,COSTA COSTA PDO CARR VARONA,-82.3876159162736,23.0409886289573,Boyeros
3391,VIBORA PARK,23140026,PORVENIR E/ MARIA AUXILIADORA Y KESSEL,-82.3577451796777,23.080711486726,Arroyo Naranjo
3392,VIBORA PARK,23140027,PORVENIR E/ SAN LEONARDO Y KESSEL,-82.3576377565736,23.0819206233514,Arroyo Naranjo
3394,POLICAKE,23140003,CDA DIEZ OCTUBRE E/ MADAMA Y MARIA AUXILIADORA,-82.360707782912,23.0781412899307,Arroyo Naranjo
3395,LA PALMA,23140007,CDA DIEZ OCTUBRE E/ ARANGUREN Y PORVENIR,-82.3586445187414,23.0749875489293,Arroyo Naranjo
3396,LA PALMA,23140049,CDA MANAGUA ANTES DE COLISEO,-82.3576916295805,23.0733074487687,Arroyo Naranjo
3397,LA PALMA,23140048,CDA MANAGUA E/ HATUEY Y COLISEO,-82.3575980459052,23.0732224961383,Arroyo Naranjo
3398,SANTA AMALIA,23140008,WASHINGTON E/ ARNAO Y SANTA AMALIA,-82.3643920874807,23.0756093522162,Arroyo Naranjo
3399,SANTA AMALIA,23140001,WASHINGTON E/ ARNAO Y SANTA AMALIA,-82.3643798643055,23.0756071062562,Arroyo Naranjo
3400,LA PALMA,23140002,CDA BEJUCAL E/ WASHINGTON Y SANTA ISABEL,-82.3590527590206,23.0728596647262,Arroyo Naranjo
3403,VIBORA,23090045,ACOSTA E/ POEY Y HEREDIA,-82.3680179514816,23.08793103806,Diez de Octubre
3404,VIBORA,23090052,ACOSTA E/ REVOLUCION Y AGUSTINA,-82.3680699975483,23.087848271095,Diez de Octubre
3407,VIBORA,23090001,CDA DIEZ OCTUBRE E/ ACOSTA Y PATROCINIO,-82.3659368643926,23.0881261518159,Diez de Octubre
3410,QUINTO DISTRITO,23090044,ACOSTA E/ PORVENIR Y ARMAS,-82.3595385444878,23.0891515862412,Diez de Octubre
3411,QUINTO DISTRITO,23090053,ACOSTA E/ 6TA Y PORVENIR,-82.3597231143152,23.0890402908082,Diez de Octubre
3412,VIBORA,23090008,CDA DIEZ OCTUBRE E/ PATROCINIO Y OFARRIL,-82.365483192437,23.0891687149436,Diez de Octubre
3414,OYANTAI,23090002,CDA DIEZ OCTUBRE E/ MILAGROS ESTE Y SAN FRANCISCO,-82.3639029020259,23.0950506352119,Diez de Octubre
3417,OYANTAI,23090007,CDA DIEZ OCTUBRE E/ LUIS ESTEVEZ Y ESTRADA PALMAY SAN FRANCISCO,-82.3632617463926,23.0962402252739,Diez de Octubre
3419,DIEZ OCTUBRE Y DOLORES,23090033,DOLORES E/ DIEZ OCTUBRE Y DELICIAS,-82.3619830468451,23.0972366090503,Diez de Octubre
3420,DIEZ OCTUBRE Y DOLORES,23090028,LACRET E/ MORELL Y PASAJE SAN CARLOS,-82.3642857137329,23.0981211773686,Diez de Octubre
3421,COCOS,23090006,CDA DIEZ OCTUBRE E/ CORREA Y COCOS,-82.3638191717001,23.1023721491319,Diez de Octubre
3422,COCOS,23090003,CDA DIEZ OCTUBRE E/ COLINA Y QUIROGA,-82.3629261873486,23.1010928935182,Diez de Octubre
3423,ESQUINA TOYO,23090005,CDA DIEZ OCTUBRE E/ SANTA EMILIA Y ZAPOTES,-82.3652408054904,23.1062775167689,Diez de Octubre
3424,ESQUINA TOYO,23090056,CDA LUYANO E/ CDA DIEZ OCTUBRE Y MARQUES DE LA TORRE,-82.3649975820926,23.1084530122433,Diez de Octubre
3425,ESQUINA TOYO,23090021,CDA LUYANO E/ ATARES Y ENSENADA,-82.3639277543545,23.1077578393727,Diez de Octubre
3426,LA LECHERA,23040001,CRISTINA E/ CALLEJON LA CONCHA Y CONCHA,-82.3654798580553,23.1162450273842,Cerro
3427,LA LECHERA,23040004,CRISTINA E/ SAN JOAQUIN Y CORTA,-82.3661092326346,23.1148171537276,Cerro
3428,ESQUINA TOYO,23090004,CDA DIEZ OCTUBRE E/ SANTOS SUAREZ Y ENAMORADOS,-82.365559067699,23.1076921254179,Diez de Octubre
3429,HOSP HIJAS GALICIA,23090020,LUYANO E/ CALLEJON BENAVIDES Y MELONES,-82.3570389720874,23.1051234705986,Diez de Octubre
3430,HOSP HIJAS GALICIA,23090057,LUYANO E/ NUESTRA SRA ANGELES Y NUESTRA SRA REGLA,-82.3583659865347,23.1053918109749,Diez de Octubre
3431,HOSP MIGUEL ENRIQUEZ,23090041,CONCHA E/ ENSENADA Y ATARES,-82.363348712322,23.1133285910279,Diez de Octubre
3432,HOSP MIGUEL ENRIQUEZ,23090040,CONCHA E/ LUCO Y VILLANUEVA,-82.3610990800365,23.1133153543481,Diez de Octubre
3433,CUATRO CAMINOS,23040002,CRISTINA Y MATADERO (ESTACION FFCC),-82.3650586517959,23.121728844419,La Habana Vieja
3434,CUATRO CAMINOS,23040003,CRISTINA E/ MATADERO Y VIGIA,-82.3652636604059,23.1221705171026,Cerro
3435,LOS SITIOS,23030008,BELASCOAIN E/ CAVEL Y SANTA MARTA,-82.3669780790545,23.125914107059,Centro Habana
3436,LOS SITIOS,23030001,BELASCOAIN E/ CAMPANARIO Y RASTRO,-82.3669977859156,23.1260114131175,Centro Habana
3437,YUMURI,23030002,BELASCOAIN E/ MALOJA Y ESTRELLA (ENRIQUE BARNET),-82.3695255410959,23.130814626163,Centro Habana
3438,YUMURI,23030007,BELASCOAIN E/ JESUS PEREGRINO Y POCITO,-82.3698036848161,23.132894820928,Centro Habana
3439,HOSP AMEIJEIRAS,23030028,SAN LAZARO E/ JOVELLAR Y VENUS,-82.3725687319914,23.1403387418587,Centro Habana
3440,HOSP AMEIJEIRAS,23030005,SAN LAZARO E/ OQUENDO Y MARQUES GONZALEZ,-82.372769339209,23.1401944710981,Centro Habana
3441,HOSP AMEIJEIRAS,23030004,JOVELLAR E/ SAN LAZARO Y VENUS,-82.3727731170569,23.1407013873222,Centro Habana
3442,LA RAMPA,23020001,23 E/ P Y O,-82.3803226087399,23.141993133826,Revolution Square
3443,LA RAMPA,23020012,23  E/ O y P,-82.3803513211382,23.1418459614593,Revolution Square
3444,COPPELIA,23020025,CALLE L E/ 23 Y 21,-82.3838601840744,23.1401956714779,Revolution Square
3445,PARQUE EL QUIJOTE,23020058,23 E/ J E I,-82.3855746944986,23.1378870868061,Revolution Square
3446,HOSPITALES DEL VEDADO,23020010,23 E/ F Y E,-82.3893139936158,23.1350659943571,Revolution Square
3447,HOSPITALES DEL VEDADO,23020016,G E/ 27 Y 25,-82.3866326038293,23.1350277912517,Revolution Square
3448,HOSPITALES DEL VEDADO,23020021,G E/ 25 Y 27,-82.3869095092476,23.1347647007966,Revolution Square
3449,HOSPITALES DEL VEDADO,23020003,23 E/ F Y G,-82.3884595829847,23.1357260975668,Revolution Square
3450,PREUNIVERSITARIO ANTONIO GUITERAS,23020004,23 E/ C Y B,-82.3919903271482,23.133028265106,Revolution Square
3451,PREUNIVERSITARIO ANTONIO GUITERAS,23020009,23 E/ PASEO Y A,-82.3936845417824,23.1316672927638,Revolution Square
3452,LA PELOTA,23020005,23 E/ 10 Y CRECHERIE,-82.3983779114295,23.128132965044,Revolution Square
3453,YANG TSE,23020006,23 E/ 24 Y 22,-82.4044461609692,23.1235041561617,Revolution Square
3454,YANG TSE,23020007,23 E/ 26 Y 28,-82.4061678552743,23.122126248439,Revolution Square
3457,RPTO KOHLY,23010001,28 E/ 45 Y 24,-82.4109190489638,23.1157236616925,Playa
3458,RPTO KOHLY,23010008,28 E/ 45 Y 47,-82.4096792093901,23.1159621866126,Playa
3460,EKHLO,23010007,41 E/ 42A Y 47,-82.4130377938215,23.1102701941331,Playa
3461,EKHLO,23010002,41 E/ 39A Y 42,-82.4133854636886,23.1114198570253,Playa
3464,CINE AVENIDA,23010006,41 E/ 58B Y 58,-82.4177787908054,23.1023770872826,Playa
3465,CINE AVENIDA,23010003,41 E/ 58 Y 58B,-82.4178721419104,23.1024345776449,Playa
3466,LIGA CEGUERA,23010004,31 E/ 74 Y 76,-82.4224052432556,23.0930426916663,Playa
3467,LIGA CEGUERA,23010005,31 ANTES DE 76,-82.4228230267081,23.0917380789288,Marianao
3468,LIGA CEGUERA,23010027,41 E/ 31 Y 76,-82.4216570223071,23.0929690065429,Playa
3469,HOSP PEDIATRICO MARIANAO,23110001,31 Y HOSP PEDIATRICO,-82.4242070465598,23.0896566847333,Marianao
3470,HOSP PEDIATRICO MARIANAO,23110014,31 Y MATERNIDAD OBRERA,-82.4248697334168,23.0889471075466,Marianao
3471,LIDO,23110018,41 E/ 86 Y 84A,-82.4214898606528,23.0880857619511,Marianao
3472,CIUDAD LIBERTAD,23110002,31 E/ 25 Y 102,-82.4281788158989,23.0861348582736,Marianao
3473,CIUDAD LIBERTAD,23110013,31 E/ 102 Y 100,-82.4271933470442,23.08680645248,Marianao
3474,HOSP MILITAR,23110003,31 E/ 108 Y 29,-82.4308023643153,23.0830160430289,Marianao
3475,HOSP MILITAR,23110012,31 E/ 114 Y 110,-82.4311212195616,23.0824362705151,Marianao
3476,HOSP MILITAR,23110038,114 ANTES DE 31,-82.4319507287011,23.0829172487025,Marianao
3477,HOSP MILITAR,23110035,114 PDO 31,-82.4318599732623,23.0829741131838,Marianao
3478,51 Y 114,23110004,114 E/ 47 Y 49,-82.4275172330301,23.0763904854492,Marianao
3479,PARQUE ACOSTA,23090051,ACOSTA E/ JUAN DELGADO Y DSTRAMPES,-82.3752153846154,23.0891282051282,Diez de Octubre
3480,LAS BRISAS,23110010,114 E/ 67 Y 65,-82.4248758690858,23.0728484440613,Marianao
3481,LAS BRISAS,23110005,114 E/ 67 Y 67A,-82.4246246167171,23.072500811116,Marianao
3482,LOS ANGELES,23110009,114 E/ 85 Y 83,-82.4223518222064,23.0690486475092,Marianao
3483,LOS ANGELES,23110006,114 E/ 83 Y 85,-82.4224108568207,23.0691053305283,Marianao
3484,CUJAE,23110008,CARR ISPJAE E/ 131 Y AVE ISPJAE,-82.4194159188735,23.0531913032452,Marianao
3485,CUJAE,23110007,CARR ISPJAE E/ AVE ISPJAE Y 131,-82.4195791026152,23.0530692916093,Marianao
3486,WOODBURY,23140009,CDA BEJUCAL E/ MARTI Y LINCOLN,-82.3602855149231,23.07133207469,Arroyo Naranjo
3487,WOODBURY,23140016,CDA BEJUCAL E/ FRANKLIN Y WOODBURY,-82.3621122944371,23.0685862159417,Arroyo Naranjo
3488,CIRO FRIAS,23140010,CDA BEJUCAL E/ 4TA Y 2DA (CIRO FRIAS),-82.3629446418085,23.066579795983,Arroyo Naranjo
3489,CIRO FRIAS,23140015,CDA BEJUCAL E/ AVE SAN JUAN Y JOAQUIN DELGADO,-82.3633277963764,23.0648807307624,Arroyo Naranjo
3490,POEY,23140011,6TA E/ C Y D,-82.3673535376657,23.0647893567539,Arroyo Naranjo
3491,POEY,23140014,6TA E/ E Y D,-82.3683049288377,23.0649409678563,Arroyo Naranjo
3493,POLICLINICO LOS PINOS,23140012,PERLA E/ CISNEROS BETANCOURT Y AVE DEL OESTE,-82.3770678644061,23.0656284013602,Arroyo Naranjo
3494,POLICLINICO LOS PINOS,23140013,PERLA E/ CISNEROS BETANCOURT Y FINLAY,-82.3765026299532,23.0656428906055,Arroyo Naranjo
3495,CERRO PELADO,23130028,PERLA ANTES DE EMBIL,-82.387320102647,23.0643267646196,Boyeros
3496,CERRO PELADO,23130037,PERLA PDO CALLEJON DE LA ROSA,-82.3871708169711,23.0643275177525,Boyeros
3497,HOSP WILLIAM SOLER,23130036,100 Y HOSPITAL WILLIAM SOLER,-82.3911382203793,23.0628340610884,Boyeros
3498,HOSP WILLIAM SOLER,23130029,100 Y HOSPITAL WILLIAM SOLER,-82.3912154156009,23.0627805145596,Boyeros
3499,LABORATORIO ANTIDOPING,23130030,ALDABO E/ 5TA Y 100,-82.3874067678154,23.0572200829108,Boyeros
3500,LABORATORIO ANTIDOPING,23130035,ALDABO E/ 5TA Y 6TA,-82.3874441292406,23.0571704972581,Boyeros
3501,HOSP NACIONAL,23130031,ALDABO E/ E Y C,-82.3922783350761,23.0588240157802,Boyeros
3502,HOSP NACIONAL,23130034,ALDABO Y E (ENTRADA HOSP),-82.3923697065006,23.0599765686459,Boyeros
3503,100 Y BOYEROS,23130032,100 ANTES DE BOYEROS,-82.3957311308857,23.0701386335569,Boyeros
3504,100 Y BOYEROS,23130033,100 PDO BOYEROS,-82.3960629555079,23.0701501639508,Boyeros
3505,AUTOPISTA PINAR DEL RIO,23110015,100 E/ 123 Y CALLEJON ACCESO,-82.4033190402789,23.0722742269001,Marianao
3506,AUTOPISTA PINAR DEL RIO,23110022,100 Y PDO PUENTE AUTOPISTA,-82.4050390221607,23.0724321573314,Marianao
3513,114 Y 41,23110011,114 E/ 43 Y 41,-82.42915,23.0785,Marianao
3527,INTERMODAL CUJAE,23110096,CARR CUJAE PDO AUTOPISTA ESTE OESTE,-82.4198143237459,23.0609155701132,Marianao
3532,INTERMODAL CUJAE,23110097,CARR CUJAE ANTES AUTOPISTA ESTE OESTE,-82.4194158131582,23.0603753363699,Marianao
3545,TALLERES CIENAGA,23020024,C.M.CESPEDES PDO PUENTES GRANDES,-82.392682609776,23.107644860662,Cerro
3546,MITRANS,23020023,BOYEROS E/ SAN PEDRO Y LOMBILLO,-82.3885183577224,23.1181758064952,Revolution Square
3547,MICONS,23020022,C.M.CESPEDES E/ ZAPATA Y 35,-82.3858225186297,23.128277518053,Revolution Square
3568,PALACIO MATRIMONIOS PLAYA,23010030,3RA E/ 28 Y 30,-82.4256058823529,23.1215156862745,Playa
3594,TALLERES CIENAGA,23020013,BOYEROS ANTES DE CDA CERRO,-82.3922606152946,23.1075685468691,Cerro
3595,MITRANS,23020014,BOYEROS E/ TULIPAN Y LA ROSA,-82.3889097279877,23.1152687931089,Revolution Square
